[
  {
    "OBJECT_NAME": "STARLINK-6122",
    "OBJECT_ID": "2023-046AN",
    "EPOCH": "2025-05-05T09:38:21.499008",
    "MEAN_MOTION": 15.02542316,
    "ECCENTRICITY": 0.0001476,
    "INCLINATION": 43.0041,
    "RA_OF_ASC_NODE": 21.4447,
    "ARG_OF_PERICENTER": 272.9806,
    "MEAN_ANOMALY": 87.0867,
    "EPHEMERIS_TYPE": 0,
    "CLASSIFICATION_TYPE": "U",
    "NORAD_CAT_ID": 56128,
    "ELEMENT_SET_NO": 999,
    "REV_AT_EPOCH": 11583,
    "BSTAR": -6.9977e-06,
    "MEAN_MOTION_DOT": -2.98e-06,
    "MEAN_MOTION_DDOT": 0
  },
  {
    "OBJECT_NAME": "STARLINK-6121",
    "OBJECT_ID": "2023-046AP",
    "EPOCH": "2025-05-05T20:30:46.503360",
    "MEAN_MOTION": 15.02535133,
    "ECCENTRICITY": 0.000123,
    "INCLINATION": 43.0047,
    "RA_OF_ASC_NODE": 326.9311,
    "ARG_OF_PERICENTER": 274.1821,
    "MEAN_ANOMALY": 85.8881,
    "EPHEMERIS_TYPE": 0,
    "CLASSIFICATION_TYPE": "U",
    "NORAD_CAT_ID": 56129,
    "ELEMENT_SET_NO": 999,
    "REV_AT_EPOCH": 11650,
    "BSTAR": 3.5386e-05,
    "MEAN_MOTION_DOT": 2.74e-06,
    "MEAN_MOTION_DDOT": 0
  },
  {
    "OBJECT_NAME": "STARLINK-6117",
    "OBJECT_ID": "2023-046AQ",
    "EPOCH": "2025-05-05T09:20:46.134240",
    "MEAN_MOTION": 15.02537732,
    "ECCENTRICITY": 0.0001091,
    "INCLINATION": 43.0037,
    "RA_OF_ASC_NODE": 21.3565,
    "ARG_OF_PERICENTER": 273.9364,
    "MEAN_ANOMALY": 86.1353,
    "EPHEMERIS_TYPE": 0,
    "CLASSIFICATION_TYPE": "U",
    "NORAD_CAT_ID": 56130,
    "ELEMENT_SET_NO": 999,
    "REV_AT_EPOCH": 11583,
    "BSTAR": 9.4726e-05,
    "MEAN_MOTION_DOT": 1.076e-05,
    "MEAN_MOTION_DDOT": 0
  },
  {
    "OBJECT_NAME": "STARLINK-6120",
    "OBJECT_ID": "2023-046AR",
    "EPOCH": "2025-05-06T00:57:16.782912",
    "MEAN_MOTION": 15.02531145,
    "ECCENTRICITY": 0.0001238,
    "INCLINATION": 43.0055,
    "RA_OF_ASC_NODE": 17.6317,
    "ARG_OF_PERICENTER": 284.4395,
    "MEAN_ANOMALY": 75.631,
    "EPHEMERIS_TYPE": 0,
    "CLASSIFICATION_TYPE": "U",
    "NORAD_CAT_ID": 56131,
    "ELEMENT_SET_NO": 999,
    "REV_AT_EPOCH": 11647,
    "BSTAR": 2.6625e-05,
    "MEAN_MOTION_DOT": 1.56e-06,
    "MEAN_MOTION_DDOT": 0
  },
  {
    "OBJECT_NAME": "STARLINK-6071",
    "OBJECT_ID": "2023-046AS",
    "EPOCH": "2025-05-05T01:17:20.310720",
    "MEAN_MOTION": 15.02533021,
    "ECCENTRICITY": 0.0001217,
    "INCLINATION": 43.0058,
    "RA_OF_ASC_NODE": 23.1403,
    "ARG_OF_PERICENTER": 261.3866,
    "MEAN_ANOMALY": 98.6838,
    "EPHEMERIS_TYPE": 0,
    "CLASSIFICATION_TYPE": "U",
    "NORAD_CAT_ID": 56132,
    "ELEMENT_SET_NO": 999,
    "REV_AT_EPOCH": 11578,
    "BSTAR": 0.00019916,
    "MEAN_MOTION_DOT": 2.487e-05,
    "MEAN_MOTION_DDOT": 0
  },
  {
    "OBJECT_NAME": "STARLINK-5566",
    "OBJECT_ID": "2023-046AT",
    "EPOCH": "2025-05-05T02:22:41.669760",
    "MEAN_MOTION": 15.02532493,
    "ECCENTRICITY": 0.000117,
    "INCLINATION": 43.0044,
    "RA_OF_ASC_NODE": 22.617,
    "ARG_OF_PERICENTER": 271.6848,
    "MEAN_ANOMALY": 88.386,
    "EPHEMERIS_TYPE": 0,
    "CLASSIFICATION_TYPE": "U",
    "NORAD_CAT_ID": 56133,
    "ELEMENT_SET_NO": 999,
    "REV_AT_EPOCH": 11579,
    "BSTAR": 0.00012884,
    "MEAN_MOTION_DOT": 1.537e-05,
    "MEAN_MOTION_DDOT": 0
  },
  {
    "OBJECT_NAME": "STARLINK-5564",
    "OBJECT_ID": "2023-046AU",
    "EPOCH": "2025-05-06T02:44:13.606368",
    "MEAN_MOTION": 15.0247556,
    "ECCENTRICITY": 9.92e-05,
    "INCLINATION": 43.004,
    "RA_OF_ASC_NODE": 17.3345,
    "ARG_OF_PERICENTER": 278.9204,
    "MEAN_ANOMALY": 81.1526,
    "EPHEMERIS_TYPE": 0,
    "CLASSIFICATION_TYPE": "U",
    "NORAD_CAT_ID": 56134,
    "ELEMENT_SET_NO": 999,
    "REV_AT_EPOCH": 11648,
    "BSTAR": 0.0017182,
    "MEAN_MOTION_DOT": 0.00023045,
    "MEAN_MOTION_DDOT": 0
  },
  {
    "OBJECT_NAME": "STARLINK-5489",
    "OBJECT_ID": "2023-046AW",
    "EPOCH": "2025-05-05T23:26:20.130432",
    "MEAN_MOTION": 15.02537724,
    "ECCENTRICITY": 0.0001196,
    "INCLINATION": 43.0045,
    "RA_OF_ASC_NODE": 18.0186,
    "ARG_OF_PERICENTER": 265.4442,
    "MEAN_ANOMALY": 94.6264,
    "EPHEMERIS_TYPE": 0,
    "CLASSIFICATION_TYPE": "U",
    "NORAD_CAT_ID": 56136,
    "ELEMENT_SET_NO": 999,
    "REV_AT_EPOCH": 11646,
    "BSTAR": 8.2762e-05,
    "MEAN_MOTION_DOT": 9.15e-06,
    "MEAN_MOTION_DDOT": 0
  },
  {
    "OBJECT_NAME": "STARLINK-5090",
    "OBJECT_ID": "2023-046AX",
    "EPOCH": "2025-05-05T10:08:33.069408",
    "MEAN_MOTION": 15.02536912,
    "ECCENTRICITY": 0.0001092,
    "INCLINATION": 43.0062,
    "RA_OF_ASC_NODE": 20.7391,
    "ARG_OF_PERICENTER": 272.296,
    "MEAN_ANOMALY": 87.7757,
    "EPHEMERIS_TYPE": 0,
    "CLASSIFICATION_TYPE": "U",
    "NORAD_CAT_ID": 56137,
    "ELEMENT_SET_NO": 999,
    "REV_AT_EPOCH": 11584,
    "BSTAR": 1.2375e-05,
    "MEAN_MOTION_DOT": -3.6e-07,
    "MEAN_MOTION_DDOT": 0
  },
  {
    "OBJECT_NAME": "STARLINK-4774",
    "OBJECT_ID": "2023-046AY",
    "EPOCH": "2025-05-05T23:16:45.036480",
    "MEAN_MOTION": 15.02535193,
    "ECCENTRICITY": 0.0001186,
    "INCLINATION": 43.0071,
    "RA_OF_ASC_NODE": 17.9716,
    "ARG_OF_PERICENTER": 261.4703,
    "MEAN_ANOMALY": 98.6005,
    "EPHEMERIS_TYPE": 0,
    "CLASSIFICATION_TYPE": "U",
    "NORAD_CAT_ID": 56138,
    "ELEMENT_SET_NO": 999,
    "REV_AT_EPOCH": 11646,
    "BSTAR": 3.8052e-05,
    "MEAN_MOTION_DOT": 3.1e-06,
    "MEAN_MOTION_DDOT": 0
  },
  {
    "OBJECT_NAME": "STARLINK-5375",
    "OBJECT_ID": "2023-046BA",
    "EPOCH": "2025-05-05T10:27:43.188192",
    "MEAN_MOTION": 15.02541277,
    "ECCENTRICITY": 0.0001371,
    "INCLINATION": 43.0055,
    "RA_OF_ASC_NODE": 20.8434,
    "ARG_OF_PERICENTER": 265.1447,
    "MEAN_ANOMALY": 94.9239,
    "EPHEMERIS_TYPE": 0,
    "CLASSIFICATION_TYPE": "U",
    "NORAD_CAT_ID": 56140,
    "ELEMENT_SET_NO": 999,
    "REV_AT_EPOCH": 11584,
    "BSTAR": 8.259e-05,
    "MEAN_MOTION_DOT": 9.12e-06,
    "MEAN_MOTION_DDOT": 0
  },
  {
    "OBJECT_NAME": "STARLINK-5377",
    "OBJECT_ID": "2023-046BB",
    "EPOCH": "2025-05-05T10:06:57.002976",
    "MEAN_MOTION": 15.02539612,
    "ECCENTRICITY": 0.0001447,
    "INCLINATION": 43.0047,
    "RA_OF_ASC_NODE": 20.7311,
    "ARG_OF_PERICENTER": 268.4407,
    "MEAN_ANOMALY": 91.6269,
    "EPHEMERIS_TYPE": 0,
    "CLASSIFICATION_TYPE": "U",
    "NORAD_CAT_ID": 56141,
    "ELEMENT_SET_NO": 999,
    "REV_AT_EPOCH": 11584,
    "BSTAR": -1.0311e-05,
    "MEAN_MOTION_DOT": -3.43e-06,
    "MEAN_MOTION_DDOT": 0
  },
  {
    "OBJECT_NAME": "STARLINK-5376",
    "OBJECT_ID": "2023-046BC",
    "EPOCH": "2025-05-05T23:08:45.515616",
    "MEAN_MOTION": 15.02536583,
    "ECCENTRICITY": 0.000101,
    "INCLINATION": 43.0041,
    "RA_OF_ASC_NODE": 17.9243,
    "ARG_OF_PERICENTER": 271.218,
    "MEAN_ANOMALY": 88.8547,
    "EPHEMERIS_TYPE": 0,
    "CLASSIFICATION_TYPE": "U",
    "NORAD_CAT_ID": 56142,
    "ELEMENT_SET_NO": 999,
    "REV_AT_EPOCH": 11646,
    "BSTAR": 0.00011288,
    "MEAN_MOTION_DOT": 1.322e-05,
    "MEAN_MOTION_DDOT": 0
  },
  {
    "OBJECT_NAME": "STARLINK-5016",
    "OBJECT_ID": "2023-046BD",
    "EPOCH": "2025-05-06T01:56:14.359200",
    "MEAN_MOTION": 15.02545933,
    "ECCENTRICITY": 0.0001979,
    "INCLINATION": 43.0025,
    "RA_OF_ASC_NODE": 17.0818,
    "ARG_OF_PERICENTER": 258.9813,
    "MEAN_ANOMALY": 101.0807,
    "EPHEMERIS_TYPE": 0,
    "CLASSIFICATION_TYPE": "U",
    "NORAD_CAT_ID": 56143,
    "ELEMENT_SET_NO": 999,
    "REV_AT_EPOCH": 11648,
    "BSTAR": 0.00024477,
    "MEAN_MOTION_DOT": 3.105e-05,
    "MEAN_MOTION_DDOT": 0
  },
  {
    "OBJECT_NAME": "STARLINK-5374",
    "OBJECT_ID": "2023-046BE",
    "EPOCH": "2025-05-05T23:03:57.274848",
    "MEAN_MOTION": 15.02540774,
    "ECCENTRICITY": 9.59e-05,
    "INCLINATION": 43.0026,
    "RA_OF_ASC_NODE": 17.9034,
    "ARG_OF_PERICENTER": 272.4608,
    "MEAN_ANOMALY": 87.6125,
    "EPHEMERIS_TYPE": 0,
    "CLASSIFICATION_TYPE": "U",
    "NORAD_CAT_ID": 56144,
    "ELEMENT_SET_NO": 999,
    "REV_AT_EPOCH": 11646,
    "BSTAR": 0.0001873,
    "MEAN_MOTION_DOT": 2.328e-05,
    "MEAN_MOTION_DDOT": 0
  },
  {
    "OBJECT_NAME": "STARLINK-5111",
    "OBJECT_ID": "2023-046BG",
    "EPOCH": "2025-05-06T01:59:26.215584",
    "MEAN_MOTION": 15.02534524,
    "ECCENTRICITY": 0.000127,
    "INCLINATION": 43.0061,
    "RA_OF_ASC_NODE": 17.1004,
    "ARG_OF_PERICENTER": 263.0094,
    "MEAN_ANOMALY": 97.0604,
    "EPHEMERIS_TYPE": 0,
    "CLASSIFICATION_TYPE": "U",
    "NORAD_CAT_ID": 56146,
    "ELEMENT_SET_NO": 999,
    "REV_AT_EPOCH": 11648,
    "BSTAR": 5.7526e-05,
    "MEAN_MOTION_DOT": 5.73e-06,
    "MEAN_MOTION_DDOT": 0
  },
  {
    "OBJECT_NAME": "STARLINK-5140",
    "OBJECT_ID": "2023-046BH",
    "EPOCH": "2025-05-05T07:25:32.043360",
    "MEAN_MOTION": 15.02532381,
    "ECCENTRICITY": 0.0001193,
    "INCLINATION": 43.0049,
    "RA_OF_ASC_NODE": 343.3829,
    "ARG_OF_PERICENTER": 275.292,
    "MEAN_ANOMALY": 84.7786,
    "EPHEMERIS_TYPE": 0,
    "CLASSIFICATION_TYPE": "U",
    "NORAD_CAT_ID": 56147,
    "ELEMENT_SET_NO": 999,
    "REV_AT_EPOCH": 11626,
    "BSTAR": 5.511e-05,
    "MEAN_MOTION_DOT": 5.41e-06,
    "MEAN_MOTION_DDOT": 0
  },
  {
    "OBJECT_NAME": "STARLINK-5089",
    "OBJECT_ID": "2023-046BJ",
    "EPOCH": "2025-05-05T07:30:19.528128",
    "MEAN_MOTION": 15.02535114,
    "ECCENTRICITY": 0.0001081,
    "INCLINATION": 43.0038,
    "RA_OF_ASC_NODE": 343.4113,
    "ARG_OF_PERICENTER": 270.9333,
    "MEAN_ANOMALY": 89.1385,
    "EPHEMERIS_TYPE": 0,
    "CLASSIFICATION_TYPE": "U",
    "NORAD_CAT_ID": 56148,
    "ELEMENT_SET_NO": 999,
    "REV_AT_EPOCH": 11626,
    "BSTAR": 5.9782e-05,
    "MEAN_MOTION_DOT": 6.04e-06,
    "MEAN_MOTION_DDOT": 0
  }
]